$$SOE
2461302.500000000, A.D. 2026-Sep-19 00:00:00.0000, -5.660139990945768E+08, -3.004538820622404E+08, 1.785351366536975E+07,
2461309.500000000, A.D. 2026-Sep-26 00:00:00.0000, -5.615247782483529E+08, -3.074387122446155E+08, 1.726940418305786E+07,
2461316.500000000, A.D. 2026-Oct-03 00:00:00.0000, -5.569317440226605E+08, -3.143667169114026E+08, 1.668210247225194E+07,
2461323.500000000, A.D. 2026-Oct-10 00:00:00.0000, -5.522354257964143E+08, -3.212364369439859E+08, 1.609170756695731E+07,
2461330.500000000, A.D. 2026-Oct-17 00:00:00.0000, -5.474363705918896E+08, -3.280464124703574E+08, 1.549831953983212E+07,
2461337.500000000, A.D. 2026-Oct-24 00:00:00.0000, -5.425351433547575E+08, -3.347951830098827E+08, 1.490203950674683E+07,
2461344.500000000, A.D. 2026-Oct-31 00:00:00.0000, -5.375323271494415E+08, -3.414812877872525E+08, 1.430296960920358E+07,
2461351.500000000, A.D. 2026-Nov-07 00:00:00.0000, -5.324285229306621E+08, -3.481032661416745E+08, 1.370121294972636E+07,
2461358.500000000, A.D. 2026-Nov-14 00:00:00.0000, -5.272243486901315E+08, -3.546596571439865E+08, 1.309687353451185E+07,
2461365.500000000, A.D. 2026-Nov-21 00:00:00.0000, -5.219204397898072E+08, -3.611489977399305E+08, 1.249005644544551E+07,
2461372.500000000, A.D. 2026-Nov-28 00:00:00.0000, -5.165174514795441E+08, -3.675698224280653E+08, 1.188086808741051E+07,
2461379.500000000, A.D. 2026-Dec-05 00:00:00.0000, -5.110160599798622E+08, -3.739206651292394E+08, 1.126941612554349E+07,
2461386.500000000, A.D. 2026-Dec-12 00:00:00.0000, -5.054169619651309E+08, -3.802000601367702E+08, 1.065580935185866E+07,
2461393.500000000, A.D. 2026-Dec-19 00:00:00.0000, -4.997208743341652E+08, -3.864065421408247E+08, 1.004015765512167E+07,
2461400.500000000, A.D. 2026-Dec-26 00:00:00.0000, -4.939285344102652E+08, -3.925386461952490E+08, 9.422572036284387E+06,
2461407.500000000, A.D. 2027-Jan-02 00:00:00.0000, -4.880407002948968E+08, -3.985949078182854E+08, 8.803164628710955E+06,
2461414.500000000, A.D. 2027-Jan-09 00:00:00.0000, -4.820581512586449E+08, -4.045738632076523E+08, 8.182048714210927E+06,
2461421.500000000, A.D. 2027-Jan-16 00:00:00.0000, -4.759816881352003E+08, -4.104740495617787E+08, 7.559338732415050E+06,
2461428.500000000, A.D. 2027-Jan-23 00:00:00.0000, -4.698121336738433E+08, -4.162940055473553E+08, 6.935150276046336E+06,
2461435.500000000, A.D. 2027-Jan-30 00:00:00.0000, -4.635503326643286E+08, -4.220322719614168E+08, 6.309600050917357E+06,
2461442.500000000, A.D. 2027-Feb-06 00:00:00.0000, -4.571971514110743E+08, -4.276873922482072E+08, 5.682805789389312E+06,
2461449.500000000, A.D. 2027-Feb-13 00:00:00.0000, -4.507534770183338E+08, -4.332579116511759E+08, 5.054886259050637E+06,
2461456.500000000, A.D. 2027-Feb-20 00:00:00.0000, -4.442202188510011E+08, -4.387423757910275E+08, 4.425961518573761E+06,
2461463.500000000, A.D. 2027-Feb-27 00:00:00.0000, -4.375983107755324E+08, -4.441393318837625E+08, 3.796153029844612E+06,
2461470.500000000, A.D. 2027-Mar-06 00:00:00.0000, -4.308887111632370E+08, -4.494473306765665E+08, 3.165583506448686E+06,
2461477.500000000, A.D. 2027-Mar-13 00:00:00.0000, -4.240924022561419E+08, -4.546649270522770E+08, 2.534376812581837E+06,
2461484.500000000, A.D. 2027-Mar-20 00:00:00.0000, -4.172103900244271E+08, -4.597906801373296E+08, 1.902657947554588E+06,
2461491.500000000, A.D. 2027-Mar-27 00:00:00.0000, -4.102437043130598E+08, -4.648231534626884E+08, 1.270553052304327E+06,
2461498.500000000, A.D. 2027-Apr-03 00:00:00.0000, -4.031933990746431E+08, -4.697609152261927E+08, 6.381894152380228E+05,
2461505.500000000, A.D. 2027-Apr-10 00:00:00.0000, -3.960605526273423E+08, -4.746025386338364E+08, 5.695473554939032E+03,
2461512.500000000, A.D. 2027-Apr-17 00:00:00.0000, -3.888462679159306E+08, -4.793466023346389E+08, -6.267991932168901E+05,
2461519.500000000, A.D. 2027-Apr-24 00:00:00.0000, -3.815516726967123E+08, -4.839916910114033E+08, -1.259163889856726E+06,
2461526.500000000, A.D. 2027-May-01 00:00:00.0000, -3.741779193464968E+08, -4.885363960995743E+08, -1.891266877490878E+06,
2461533.500000000, A.D. 2027-May-08 00:00:00.0000, -3.667261839878756E+08, -4.929793158857229E+08, -2.522975458071798E+06,
2461540.500000000, A.D. 2027-May-15 00:00:00.0000, -3.591976664270755E+08, -4.973190540320122E+08, -3.154155856089711E+06,
2461547.500000000, A.D. 2027-May-22 00:00:00.0000, -3.515935924673533E+08, -5.015542191181793E+08, -3.784672965901881E+06,
2461554.500000000, A.D. 2027-May-29 00:00:00.0000, -3.439152152413543E+08, -5.056834266698316E+08, -4.414390392460495E+06,
2461561.500000000, A.D. 2027-Jun-05 00:00:00.0000, -3.361638146773594E+08, -5.097053005418713E+08, -5.043170610582530E+06,
2461568.500000000, A.D. 2027-Jun-12 00:00:00.0000, -3.283406971065963E+08, -5.136184732254044E+08, -5.670875023236841E+06,
2461575.500000000, A.D. 2027-Jun-19 00:00:00.0000, -3.204471953420542E+08, -5.174215860131906E+08, -6.297363964774340E+06,
2461582.500000000, A.D. 2027-Jun-26 00:00:00.0000, -3.124846689487461E+08, -5.211132892851530E+08, -6.922496695947886E+06,
2461589.500000000, A.D. 2027-Jul-03 00:00:00.0000, -3.044545045727180E+08, -5.246922429060054E+08, -7.546131402004182E+06,
2461596.500000000, A.D. 2027-Jul-10 00:00:00.0000, -2.963581162915168E+08, -5.281571167267064E+08, -8.168125196333855E+06,
2461603.500000000, A.D. 2027-Jul-17 00:00:00.0000, -2.881969459494087E+08, -5.315065912289824E+08, -8.788334135980189E+06,
2461610.500000000, A.D. 2027-Jul-24 00:00:00.0000, -2.799724633205671E+08, -5.347393583759982E+08, -9.406613268277198E+06,
2461617.500000000, A.D. 2027-Jul-31 00:00:00.0000, -2.716861656884052E+08, -5.378541224338372E+08, -1.002281672690755E+07,
2461624.500000000, A.D. 2027-Aug-07 00:00:00.0000, -2.633395770413078E+08, -5.408495996120684E+08, -1.063679776469150E+07,
2461631.500000000, A.D. 2027-Aug-14 00:00:00.0000, -2.549342491851423E+08, -5.437245167764888E+08, -1.124840853268346E+07,
2461638.500000000, A.D. 2027-Aug-21 00:00:00.0000, -2.464717641533381E+08, -5.464776125982351E+08, -1.185749993724844E+07,
2461645.500000000, A.D. 2027-Aug-28 00:00:00.0000, -2.379537344827724E+08, -5.491076399366568E+08, -1.246392179157904E+07,
2461652.500000000, A.D. 2027-Sep-04 00:00:00.0000, -2.293818025362361E+08, -5.516133669541019E+08, -1.306752294897947E+07,
2461659.500000000, A.D. 2027-Sep-11 00:00:00.0000, -2.207576402662796E+08, -5.539935776239340E+08, -1.366815134420791E+07,
2461666.500000000, A.D. 2027-Sep-18 00:00:00.0000, -2.120829492865544E+08, -5.562470722817700E+08, -1.426565400850815E+07,
2461673.500000000, A.D. 2027-Sep-25 00:00:00.0000, -2.033594610210072E+08, -5.583726682973092E+08, -1.485987708598140E+07,
2461680.500000000, A.D. 2027-Oct-02 00:00:00.0000, -1.945889368550892E+08, -5.603692008389316E+08, -1.545066585625812E+07,
2461687.500000000, A.D. 2027-Oct-09 00:00:00.0000, -1.857731682658001E+08, -5.622355237352576E+08, -1.603786476620305E+07,
2461694.500000000, A.D. 2027-Oct-16 00:00:00.0000, -1.769139768667324E+08, -5.639705104880689E+08, -1.662131748118350E+07,
2461701.500000000, A.D. 2027-Oct-23 00:00:00.0000, -1.680132141074972E+08, -5.655730554415469E+08, -1.720086698039249E+07,
2461708.500000000, A.D. 2027-Oct-30 00:00:00.0000, -1.590727602518833E+08, -5.670420744966043E+08, -1.777635568085048E+07,
2461715.500000000, A.D. 2027-Nov-06 00:00:00.0000, -1.500945237969964E+08, -5.683765042411568E+08, -1.834762539128432E+07,
2461722.500000000, A.D. 2027-Nov-13 00:00:00.0000, -1.410804433172638E+08, -5.695753015716242E+08, -1.891451708357525E+07,
2461729.500000000, A.D. 2027-Nov-20 00:00:00.0000, -1.320324888297852E+08, -5.706374459914532E+08, -1.947687092669249E+07,
2461736.500000000, A.D. 2027-Nov-27 00:00:00.0000, -1.229526610624387E+08, -5.715619416229216E+08, -2.003452648928708E+07,
2461743.500000000, A.D. 2027-Dec-04 00:00:00.0000, -1.138429906478045E+08, -5.723478180187290E+08, -2.058732285068539E+07,
2461750.500000000, A.D. 2027-Dec-11 00:00:00.0000, -1.047055377930229E+08, -5.729941307371595E+08, -2.113509864853877E+07,
2461757.500000000, A.D. 2027-Dec-18 00:00:00.0000, -9.554239214999548E+07, -5.734999620193436E+08, -2.167769211600110E+07,
2461764.500000000, A.D. 2027-Dec-25 00:00:00.0000, -8.635567273311123E+07, -5.738644215699970E+08, -2.221494112248418E+07,
2461771.500000000, A.D. 2028-Jan-01 00:00:00.0000, -7.714752784205014E+07, -5.740866474262778E+08, -2.274668322052386E+07,
$$EOE